{
  "type": "FeatureCollection",
  "features": [
    {
      "type": "Feature",
      "properties": {
        "norad_id": 66522,
        "name": "STARLINK-35946",
        "group": "last-30-days",
        "lat": 7.209913930796995,
        "lon": 37.4523842757549,
        "alt_km": 412.9013473252098,
        "timestamp": "2025-12-16T21:38:55.916585+00:00",
        "meta_object_name": "STARLINK-35946",
        "meta_object_id": "2025-265G",
        "meta_epoch": "2025-12-16T03:03:11.151360",
        "meta_mean_motion": 15.50628679,
        "meta_eccentricity": 0.00014256,
        "meta_inclination": 42.9976,
        "meta_ra_of_asc_node": 34.1834,
        "meta_arg_of_pericenter": 304.2198,
        "meta_mean_anomaly": 55.8527,
        "meta_ephemeris_type": 0,
        "meta_classification_type": "U",
        "meta_norad_cat_id": 66522,
        "meta_element_set_no": 999,
        "meta_rev_at_epoch": 428,
        "meta_bstar": 0.0011852833,
        "meta_mean_motion_dot": 0.00069941,
        "meta_mean_motion_ddot": 0,
        "tle_line1": "1 66522U 25265G   25350.12721240  .00069941  00000+0  11853-2 0  9993",
        "tle_line2": "2 66522  42.9976  34.1834 0001425 304.2198  55.8527 15.50628679  4287"
      },
      "geometry": {
        "type": "Point",
        "coordinates": [
          37.4523842757549,
          7.209913930796995
        ]
      }
    },
    {
      "type": "Feature",
      "properties": {
        "norad_id": 66523,
        "name": "STARLINK-35969",
        "group": "last-30-days",
        "lat": 8.625990004383274,
        "lon": 39.01433366267995,
        "alt_km": 410.6387298587215,
        "timestamp": "2025-12-16T21:38:55.916596+00:00",
        "meta_object_name": "STARLINK-35969",
        "meta_object_id": "2025-265H",
        "meta_epoch": "2025-12-16T04:35:26.077920",
        "meta_mean_motion": 15.50681242,
        "meta_eccentricity": 0.00077889,
        "meta_inclination": 43.0038,
        "meta_ra_of_asc_node": 33.8056,
        "meta_arg_of_pericenter": 304.3945,
        "meta_mean_anomaly": 55.6179,
        "meta_ephemeris_type": 0,
        "meta_classification_type": "U",
        "meta_norad_cat_id": 66523,
        "meta_element_set_no": 999,
        "meta_rev_at_epoch": 429,
        "meta_bstar": 0.0013806199,
        "meta_mean_motion_dot": 0.00081887,
        "meta_mean_motion_ddot": 0,
        "tle_line1": "1 66523U 25265H   25350.19127405  .00081887  00000+0  13806-2 0  9997",
        "tle_line2": "2 66523  43.0038  33.8056 0007788 304.3945  55.6179 15.50681242  4297"
      },
      "geometry": {
        "type": "Point",
        "coordinates": [
          39.01433366267995,
          8.625990004383274
        ]
      }
    },
    {
      "type": "Feature",
      "properties": {
        "norad_id": 66524,
        "name": "STARLINK-35687",
        "group": "last-30-days",
        "lat": -11.13222254752311,
        "lon": -137.73656544556243,
        "alt_km": 444.68254596420957,
        "timestamp": "2025-12-16T21:38:55.916606+00:00",
        "meta_object_name": "STARLINK-35687",
        "meta_object_id": "2025-265J",
        "meta_epoch": "2025-12-16T06:00:02.999808",
        "meta_mean_motion": 15.40683325,
        "meta_eccentricity": 0.00014953,
        "meta_inclination": 43.0006,
        "meta_ra_of_asc_node": 33.831,
        "meta_arg_of_pericenter": 255.2631,
        "meta_mean_anomaly": 280.5042,
        "meta_ephemeris_type": 0,
        "meta_classification_type": "U",
        "meta_norad_cat_id": 66524,
        "meta_element_set_no": 999,
        "meta_rev_at_epoch": 555,
        "meta_bstar": 0.00029678501,
        "meta_mean_motion_dot": 0.00012107,
        "meta_mean_motion_ddot": 0,
        "tle_line1": "1 66524U 25265J   25350.25003472  .00012107  00000+0  29679-3 0  9997",
        "tle_line2": "2 66524  43.0006  33.8310 0001495 255.2631 280.5042 15.40683325  5552"
      },
      "geometry": {
        "type": "Point",
        "coordinates": [
          -137.73656544556243,
          -11.13222254752311
        ]
      }
    },
    {
      "type": "Feature",
      "properties": {
        "norad_id": 66525,
        "name": "STARLINK-35975",
        "group": "last-30-days",
        "lat": -38.579367207845074,
        "lon": -91.17427054932531,
        "alt_km": 446.71837811795103,
        "timestamp": "2025-12-16T21:38:55.916623+00:00",
        "meta_object_name": "STARLINK-35975",
        "meta_object_id": "2025-265K",
        "meta_epoch": "2025-12-16T06:00:02.999808",
        "meta_mean_motion": 15.40685905,
        "meta_eccentricity": 0.00010371,
        "meta_inclination": 43.0005,
        "meta_ra_of_asc_node": 33.7111,
        "meta_arg_of_pericenter": 285.4365,
        "meta_mean_anomaly": 300.0807,
        "meta_ephemeris_type": 0,
        "meta_classification_type": "U",
        "meta_norad_cat_id": 66525,
        "meta_element_set_no": 999,
        "meta_rev_at_epoch": 555,
        "meta_bstar": 0.00024188672,
        "meta_mean_motion_dot": 9.809e-05,
        "meta_mean_motion_ddot": 0,
        "tle_line1": "1 66525U 25265K   25350.25003472  .00009809  00000+0  24189-3 0  9994",
        "tle_line2": "2 66525  43.0005  33.7111 0001037 285.4365 300.0807 15.40685905  5554"
      },
      "geometry": {
        "type": "Point",
        "coordinates": [
          -91.17427054932531,
          -38.579367207845074
        ]
      }
    },
    {
      "type": "Feature",
      "properties": {
        "norad_id": 66526,
        "name": "STARLINK-35932",
        "group": "last-30-days",
        "lat": 14.574225723884183,
        "lon": 45.818008520842305,
        "alt_km": 411.1611085455452,
        "timestamp": "2025-12-16T21:38:55.916634+00:00",
        "meta_object_name": "STARLINK-35932",
        "meta_object_id": "2025-265L",
        "meta_epoch": "2025-12-14T10:49:31.784448",
        "meta_mean_motion": 15.50621032,
        "meta_eccentricity": 0.00017397,
        "meta_inclination": 43.0001,
        "meta_ra_of_asc_node": 43.9653,
        "meta_arg_of_pericenter": 227.2965,
        "meta_mean_anomaly": 132.7749,
        "meta_ephemeris_type": 0,
        "meta_classification_type": "U",
        "meta_norad_cat_id": 66526,
        "meta_element_set_no": 999,
        "meta_rev_at_epoch": 402,
        "meta_bstar": 0.0026007534,
        "meta_mean_motion_dot": 0.00155535,
        "meta_mean_motion_ddot": 0,
        "tle_line1": "1 66526U 25265L   25348.45106232  .00155535  00000+0  26008-2 0  9991",
        "tle_line2": "2 66526  43.0001  43.9653 0001739 227.2965 132.7749 15.50621032  4022"
      },
      "geometry": {
        "type": "Point",
        "coordinates": [
          45.818008520842305,
          14.574225723884183
        ]
      }
    },
    {
      "type": "Feature",
      "properties": {
        "norad_id": 66527,
        "name": "STARLINK-35935",
        "group": "last-30-days",
        "lat": 14.304475563845353,
        "lon": 45.50093436739175,
        "alt_km": 411.90252373329986,
        "timestamp": "2025-12-16T21:38:55.916644+00:00",
        "meta_object_name": "STARLINK-35935",
        "meta_object_id": "2025-265M",
        "meta_epoch": "2025-12-15T13:05:53.883456",
        "meta_mean_motion": 15.50717657,
        "meta_eccentricity": 0.00013255,
        "meta_inclination": 43.0008,
        "meta_ra_of_asc_node": 37.5593,
        "meta_arg_of_pericenter": 259.6498,
        "meta_mean_anomaly": 100.4213,
        "meta_ephemeris_type": 0,
        "meta_classification_type": "U",
        "meta_norad_cat_id": 66527,
        "meta_element_set_no": 999,
        "meta_rev_at_epoch": 419,
        "meta_bstar": 0.0016714965,
        "meta_mean_motion_dot": 0.00099462,
        "meta_mean_motion_ddot": 0,
        "tle_line1": "1 66527U 25265M   25349.54576254  .00099462  00000+0  16715-2 0  9998",
        "tle_line2": "2 66527  43.0008  37.5593 0001325 259.6498 100.4213 15.50717657  4198"
      },
      "geometry": {
        "type": "Point",
        "coordinates": [
          45.50093436739175,
          14.304475563845353
        ]
      }
    },
    {
      "type": "Feature",
      "properties": {
        "norad_id": 66528,
        "name": "STARLINK-35928",
        "group": "last-30-days",
        "lat": 0.17290068483461804,
        "lon": 29.858980530479855,
        "alt_km": 420.7927987645926,
        "timestamp": "2025-12-16T21:38:55.916655+00:00",
        "meta_object_name": "STARLINK-35928",
        "meta_object_id": "2025-265N",
        "meta_epoch": "2025-12-16T04:33:37.783296",
        "meta_mean_motion": 15.44866701,
        "meta_eccentricity": 0.00320813,
        "meta_inclination": 43.0004,
        "meta_ra_of_asc_node": 33.7926,
        "meta_arg_of_pericenter": 24.2193,
        "meta_mean_anomaly": 336.0166,
        "meta_ephemeris_type": 0,
        "meta_classification_type": "U",
        "meta_norad_cat_id": 66528,
        "meta_element_set_no": 999,
        "meta_rev_at_epoch": 429,
        "meta_bstar": -0.049968255,
        "meta_mean_motion_dot": -0.02179701,
        "meta_mean_motion_ddot": 0,
        "tle_line1": "1 66528U 25265N   25350.19002064 -.02179701  00000+0 -49968-1 0  9999",
        "tle_line2": "2 66528  43.0004  33.7926 0032081  24.2193 336.0166 15.44866701  4297"
      },
      "geometry": {
        "type": "Point",
        "coordinates": [
          29.858980530479855,
          0.17290068483461804
        ]
      }
    }
  ]
}